IRIDIUM 113             
1 42803U 17039A   26130.07698091  .00000132  00000+0  40193-4 0  9995
2 42803  86.3975 338.1160 0002187  92.8002 267.3444 14.34217680465728
NORSAT 2                
1 42828U 17042D   26130.01483762  .00007811  00000+0  35318-3 0  9990
2 42828  97.4030 304.0891 0009879 178.1362 181.9913 15.21158157481938
TECHNOSAT               
1 42829U 17042E   26130.01484326  .00001554  00000+0  11422-3 0  9996
2 42829  97.4242 289.1425 0016703 220.2809 139.7181 15.04721464480967
FLYING LAPTOP           
1 42831U 17042G   26130.18723082  .00002484  00000+0  19910-3 0  9995
2 42831  97.4524 287.2284 0017675 252.4960 107.4333 15.00895264480753
WNISAT 1R               
1 42835U 17042L   26130.17692287  .00001929  00000+0  15313-3 0  9996
2 42835  97.4789 287.6706 0010624 295.5719  64.4408 15.01585108480805
LEMUR-2-GREENBERG       
1 42837U 17042N   26130.04043041  .00011663  00000+0  40164-3 0  9990
2 42837  97.3817 310.8811 0010158 136.1854 224.0194 15.30144625482553
LEMUR-2-FURIAUS         
1 42840U 17042R   26130.00626436  .00012009  00000+0  42861-3 0  9996
2 42840  97.3772 308.8907 0007529 189.7018 170.4078 15.28993338482379
CORVUS BC2              
1 42846U 17042X   26129.99422574  .00002753  00000+0  19245-3 0  9990
2 42846  97.4037 292.8445 0011941 239.4865 120.5185 15.06051830481311
CORVUS BC1              
1 42847U 17042Y   26129.99317468  .00002788  00000+0  19395-3 0  9990
2 42847  97.4071 293.6325 0011155 213.1691 146.8838 15.06224214481346
VRSS-2                  
1 42954U 17060A   26130.22053522  .00000841  00000+0  11447-3 0  9993
2 42954  97.6544 169.6531 0015904 220.2595 139.7442 14.81133782462837
MOHAMMED VI-A           
1 43005U 17070A   26130.20773403 -.00000039  00000+0  17247-5 0  9993
2 43005  97.9560 203.0582 0001312 104.1260 256.0096 14.77087294458375
FENGYUN 3D              
1 43010U 17072A   26130.16133043  .00000067  00000+0  53391-4 0  9995
2 43010  99.0112 103.9023 0002067 126.1467 233.9900 14.19731538439590
NOAA 20 (JPSS-1)        
1 43013U 17073A   26130.15016633  .00000042  00000+0  40822-4 0  9991
2 43013  98.7757  69.9542 0001829  54.1984 305.9361 14.19550493439073
MAKERSAT 0              
1 43016U 17073D   26130.14837411  .00017679  00000+0  49544-3 0  9991
2 43016  97.4682  12.4083 0112141  49.1062 311.9827 15.30482267460641
RADFXSAT (FOX-1B)       
1 43017U 17073E   26130.16410510  .00006061  00000+0  26707-3 0  9990
2 43017  97.4765 358.1701 0154203  99.7936 262.0745 15.12020413459641
JILIN-1 04              
1 43022U 17074A   26130.18693767  .00008510  00000+0  20514-3 0  9997
2 43022  97.4814 238.8256 0003255 351.6370   8.4821 15.41490110468412
JILIN-1 05              
1 43023U 17074B   26130.21103046  .00005621  00000+0  17721-3 0  9994
2 43023  97.4823 235.8782 0005365  19.4107 340.7338 15.33290934468187
JILIN-1 06              
1 43024U 17074C   26130.18033830  .00003687  00000+0  11715-3 0  9991
2 43024  97.4752 232.8990 0007378  26.8644 333.2979 15.33270218468014
IRIDIUM 116             
1 43072U 17083C   26130.12138848  .00000169  00000+0  53407-4 0  9990
2 43072  86.3967 337.9230 0002145  78.2630 281.8807 14.34220994438717
IRIDIUM 130             
1 43073U 17083D   26130.08966660  .00000018  00000+0 -79104-6 0  9995
2 43073  86.3971 338.2076 0002206  81.7360 278.4086 14.34217655438656
LKW-2                   
1 43080U 17084A   26130.19449102  .00004513  00000+0  17905-3 0  9994
2 43080  97.1222 171.7749 0002903  54.4680 305.6829 15.25838640465894
SUPERVIEW-1 03          
1 43099U 18002A   26130.18484270  .00009960  00000+0  25801-3 0  9994
2 43099  97.3124 215.1180 0046679 318.9609  40.8127 15.38109345462529
CARTOSAT-2F             
1 43111U 18004A   26130.20428677  .00000879  00000+0  44999-4 0  9993
2 43111  97.4236 190.2221 0002158  61.4729 298.6722 15.19191970461566
LKW-3                   
1 43146U 18006A   26130.17558453  .00004469  00000+0  13624-3 0  9994
2 43146  97.6581 289.2968 0004186  85.4644 274.7076 15.34509029462889
ASNARO-2                
1 43152U 18007A   26130.12985935  .00006206  00000+0  27149-3 0  9994
2 43152  97.3995 137.6484 0001762  91.1399 269.0039 15.22414777461628
JILIN-1 07              
1 43159U 18008E   26130.20290554  .00005717  00000+0  17545-3 0  9992
2 43159  97.1801 151.1590 0008261 180.9417 179.1812 15.34094445459173
JILIN-1 08              
1 43160U 18008F   26130.18016905  .00004374  00000+0  13862-3 0  9993
2 43160  97.1831 150.4898 0005601 191.4503 168.6614 15.33212383459129
LEMUR-2-KADI            
1 43184U 18014E   26129.77655807  .00243964  00000+0  11021-2 0  9993
2 43184  97.4487  58.6993 0005680 101.7792 258.4114 15.83338028454983
