OBJECT_NAME,OBJECT_ID,EPOCH,MEAN_MOTION,ECCENTRICITY,INCLINATION,RA_OF_ASC_NODE,ARG_OF_PERICENTER,MEAN_ANOMALY,EPHEMERIS_TYPE,CLASSIFICATION_TYPE,NORAD_CAT_ID,ELEMENT_SET_NO,REV_AT_EPOCH,BSTAR,MEAN_MOTION_DOT,MEAN_MOTION_DDOT
IRIDIUM 113,2017-039A,2026-05-10T01:50:51.150624,14.34217680,.0002187,86.3975,338.1160,92.8002,267.3444,0,U,42803,999,46572,.40193E-4,.132E-5,0
NORSAT 2,2017-042D,2026-05-10T00:21:21.970368,15.21158157,.0009879,97.4030,304.0891,178.1362,181.9913,0,U,42828,999,48193,.35318E-3,.7811E-4,0
TECHNOSAT,2017-042E,2026-05-10T00:21:22.457664,15.04721464,.0016703,97.4242,289.1425,220.2809,139.7181,0,U,42829,999,48096,.11422E-3,.1554E-4,0
FLYING LAPTOP,2017-042G,2026-05-10T04:29:36.742848,15.00895264,.0017675,97.4524,287.2284,252.4960,107.4333,0,U,42831,999,48075,.1991E-3,.2484E-4,0
WNISAT 1R,2017-042L,2026-05-10T04:14:46.135968,15.01585108,.0010624,97.4789,287.6706,295.5719,64.4408,0,U,42835,999,48080,.15313E-3,.1929E-4,0
LEMUR-2-GREENBERG,2017-042N,2026-05-10T00:58:13.187424,15.30144625,.0010158,97.3817,310.8811,136.1854,224.0194,0,U,42837,999,48255,.40164E-3,.11663E-3,0
LEMUR-2-FURIAUS,2017-042R,2026-05-10T00:09:01.240704,15.28993338,.0007529,97.3772,308.8907,189.7018,170.4078,0,U,42840,999,48237,.42861E-3,.12009E-3,0
CORVUS BC2,2017-042X,2026-05-09T23:51:41.103936,15.06051830,.0011941,97.4037,292.8445,239.4865,120.5185,0,U,42846,999,48131,.19245E-3,.2753E-4,0
CORVUS BC1,2017-042Y,2026-05-09T23:50:10.292352,15.06224214,.0011155,97.4071,293.6325,213.1691,146.8838,0,U,42847,999,48134,.19395E-3,.2788E-4,0
VRSS-2,2017-060A,2026-05-10T05:17:34.243008,14.81133782,.0015904,97.6544,169.6531,220.2595,139.7442,0,U,42954,999,46283,.11447E-3,.841E-5,0
MOHAMMED VI-A,2017-070A,2026-05-10T04:59:08.220192,14.77087294,.0001312,97.9560,203.0582,104.1260,256.0096,0,U,43005,999,45837,.17247E-5,-.39E-6,0
FENGYUN 3D,2017-072A,2026-05-10T03:52:18.949152,14.19731538,.0002067,99.0112,103.9023,126.1467,233.9900,0,U,43010,999,43959,.53391E-4,.67E-6,0
NOAA 20 (JPSS-1),2017-073A,2026-05-10T03:36:14.370912,14.19550493,.0001829,98.7757,69.9542,54.1984,305.9361,0,U,43013,999,43907,.40822E-4,.42E-6,0
MAKERSAT 0,2017-073D,2026-05-10T03:33:39.523104,15.30482267,.0112141,97.4682,12.4083,49.1062,311.9827,0,U,43016,999,46064,.49544E-3,.17679E-3,0
RADFXSAT (FOX-1B),2017-073E,2026-05-10T03:56:18.680640,15.12020413,.0154203,97.4765,358.1701,99.7936,262.0745,0,U,43017,999,45964,.26707E-3,.6061E-4,0
JILIN-1 04,2017-074A,2026-05-10T04:29:11.414688,15.41490110,.0003255,97.4814,238.8256,351.6370,8.4821,0,U,43022,999,46841,.20514E-3,.851E-4,0
JILIN-1 05,2017-074B,2026-05-10T05:03:53.031744,15.33290934,.0005365,97.4823,235.8782,19.4107,340.7338,0,U,43023,999,46818,.17721E-3,.5621E-4,0
JILIN-1 06,2017-074C,2026-05-10T04:19:41.229120,15.33270218,.0007378,97.4752,232.8990,26.8644,333.2979,0,U,43024,999,46801,.11715E-3,.3687E-4,0
IRIDIUM 116,2017-083C,2026-05-10T02:54:47.964672,14.34220994,.0002145,86.3967,337.9230,78.2630,281.8807,0,U,43072,999,43871,.53407E-4,.169E-5,0
IRIDIUM 130,2017-083D,2026-05-10T02:09:07.194240,14.34217655,.0002206,86.3971,338.2076,81.7360,278.4086,0,U,43073,999,43865,-.79104E-6,.18E-6,0
LKW-2,2017-084A,2026-05-10T04:40:04.024128,15.25838640,.0002903,97.1222,171.7749,54.4680,305.6829,0,U,43080,999,46589,.17905E-3,.4513E-4,0
SUPERVIEW-1 03,2018-002A,2026-05-10T04:26:10.409280,15.38109345,.0046679,97.3124,215.1180,318.9609,40.8127,0,U,43099,999,46252,.25801E-3,.996E-4,0
CARTOSAT-2F,2018-004A,2026-05-10T04:54:10.376928,15.19191970,.0002158,97.4236,190.2221,61.4729,298.6722,0,U,43111,999,46156,.44999E-4,.879E-5,0
LKW-3,2018-006A,2026-05-10T04:12:50.503392,15.34509029,.0004186,97.6581,289.2968,85.4644,274.7076,0,U,43146,999,46288,.13624E-3,.4469E-4,0
ASNARO-2,2018-007A,2026-05-10T03:06:59.847840,15.22414777,.0001762,97.3995,137.6484,91.1399,269.0039,0,U,43152,999,46162,.27149E-3,.6206E-4,0
JILIN-1 07,2018-008E,2026-05-10T04:52:11.038656,15.34094445,.0008261,97.1801,151.1590,180.9417,179.1812,0,U,43159,999,45917,.17545E-3,.5717E-4,0
JILIN-1 08,2018-008F,2026-05-10T04:19:26.605920,15.33212383,.0005601,97.1831,150.4898,191.4503,168.6614,0,U,43160,999,45912,.13862E-3,.4374E-4,0
LEMUR-2-KADI,2018-014E,2026-05-09T18:38:14.617248,15.83338028,.00056808,97.4487,58.6993,101.7792,258.4114,0,U,43184,999,45498,.11020725E-2,.243964E-2,0
